G21
G90
G0 Z5
G0 X54.012 Y0.126
G1 Z0
G1 X52.951 Y0.559
G1 X52.000 Y1.452
G1 X51.300 Y2.411
G1 X50.662 Y3.355
G1 X49.677 Y3.675
G1 X48.349 Y3.118
G1 X47.041 Y3.024
G1 X45.913 Y3.439
G1 X45.132 Y4.260
G1 X44.761 Y5.565
G1 X44.667 Y6.683
G1 X43.795 Y7.281
G1 X42.752 Y7.483
G1 X41.500 Y7.779
G1 X40.331 Y8.133
G1 X39.238 Y8.514
G1 X38.206 Y8.885
G1 X36.164 Y7.796
G1 X35.415 Y7.077
G1 X33.976 Y5.888
G1 X32.521 Y4.968
G1 X30.936 Y4.242
G1 X29.469 Y3.745
G1 X28.386 Y3.477
G1 X27.302 Y3.321
G1 X26.062 Y3.254
G1 X24.384 Y3.267
G1 X22.663 Y3.435
G1 X21.077 Y3.797
G1 X19.505 Y4.380
G1 X17.506 Y5.415
G1 X16.398 Y6.149
G1 X15.367 Y6.960
G1 X14.417 Y7.846
G1 X13.551 Y8.802
G1 X12.776 Y9.823
G1 X12.094 Y10.905
G1 X11.511 Y12.045
G1 X11.092 Y12.971
G1 X10.714 Y13.989
G1 X10.404 Y14.995
G1 X10.173 Y16.299
G1 X10.125 Y17.379
G1 X10.126 Y18.664
G1 X10.171 Y19.842
G1 X10.403 Y21.037
G1 X10.798 Y22.409
G1 X11.249 Y23.603
G1 X12.064 Y25.265
G1 X13.062 Y26.818
G1 X14.233 Y28.244
G1 X15.554 Y29.517
G1 X16.994 Y30.641
G1 X16.810 Y31.858
G1 X16.595 Y32.955
G1 X16.264 Y34.649
G1 X16.084 Y35.691
G1 X15.837 Y37.571
G1 X15.715 Y39.472
G1 X15.689 Y40.539
G1 X15.682 Y41.743
G1 X15.684 Y42.939
G1 X15.704 Y43.960
G1 X15.815 Y45.709
G1 X16.062 Y47.444
G1 X16.250 Y48.447
G1 X16.488 Y49.617
G1 X16.815 Y50.924
G1 X17.266 Y52.405
G1 X17.768 Y53.839
G1 X18.248 Y55.003
G1 X18.851 Y56.391
G1 X19.498 Y57.647
G1 X20.339 Y59.087
G1 X21.288 Y60.565
G1 X22.187 Y61.831
G1 X23.022 Y62.894
G1 X23.942 Y63.957
G1 X25.022 Y65.104
G1 X25.973 Y66.063
G1 X26.798 Y66.908
G1 X26.676 Y67.961
G1 X25.837 Y68.584
G1 X24.824 Y69.356
G1 X23.832 Y70.134
G1 X23.037 Y70.781
G1 X21.901 Y71.814
G1 X21.096 Y72.578
G1 X20.346 Y73.315
G1 X19.643 Y74.031
G1 X18.350 Y75.431
G1 X17.159 Y76.837
G1 X16.274 Y77.973
G1 X15.389 Y79.198
G1 X14.517 Y80.494
G1 X13.669 Y81.843
G1 X12.797 Y83.427
G1 X12.283 Y84.434
G1 X11.753 Y85.510
G1 X11.233 Y86.603
G1 X10.751 Y87.656
G1 X10.332 Y88.615
G1 X9.843 Y89.846
G1 X9.331 Y91.234
G1 X8.959 Y92.310
G1 X8.486 Y93.927
G1 X8.164 Y95.049
G1 X7.906 Y96.026
G1 X7.668 Y97.006
G1 X7.328 Y98.549
G1 X7.125 Y99.594
G1 X6.936 Y100.666
G1 X6.764 Y101.750
G1 X6.610 Y102.831
G1 X6.477 Y103.894
G1 X6.367 Y104.927
G1 X6.238 Y106.625
G1 X6.179 Y108.427
G1 X6.161 Y110.289
G1 X6.189 Y111.682
G1 X5.358 Y113.447
G1 X4.543 Y114.361
G1 X3.809 Y115.271
G1 X3.152 Y116.181
G1 X2.569 Y117.100
G1 X2.055 Y118.032
G1 X1.608 Y118.983
G1 X1.222 Y119.961
G1 X0.896 Y120.971
G1 X0.572 Y122.047
G1 X0.364 Y123.063
G1 X0.175 Y124.138
G1 X0.058 Y125.374
G1 X0.001 Y126.464
G1 X0.000 Y128.201
G1 X0.121 Y129.894
G1 X0.364 Y131.545
G1 X0.732 Y133.160
G1 X1.223 Y134.742
G1 X1.840 Y136.294
G1 X2.583 Y137.820
G1 X3.452 Y139.325
G1 X4.356 Y140.678
G1 X5.332 Y141.960
G1 X6.394 Y143.182
G1 X7.553 Y144.356
G1 X8.824 Y145.493
G1 X10.218 Y146.606
G1 X11.748 Y147.705
G1 X13.426 Y148.803
G1 X14.365 Y149.308
G1 X15.361 Y149.727
G1 X16.900 Y149.940
G1 X19.109 Y149.974
G1 X22.130 Y149.994
G1 X25.566 Y150.000
G1 X29.015 Y149.992
G1 X32.077 Y149.970
G1 X34.354 Y149.933
G1 X35.445 Y149.882
G1 X36.943 Y149.469
G1 X38.506 Y148.699
G1 X40.089 Y147.596
G1 X40.874 Y146.929
G1 X41.647 Y146.188
G1 X42.878 Y144.725
G1 X43.917 Y143.040
G1 X44.701 Y141.254
G1 X45.166 Y139.490
G1 X45.479 Y138.523
G1 X46.646 Y138.752
G1 X47.781 Y139.019
G1 X49.124 Y139.281
G1 X50.207 Y139.454
G1 X51.624 Y139.628
G1 X53.752 Y139.720
G1 X54.957 Y139.732
G1 X56.153 Y139.722
G1 X57.263 Y139.689
G1 X58.922 Y139.558
G1 X59.954 Y139.382
G1 X61.098 Y139.166
G1 X62.182 Y138.944
G1 X63.255 Y138.702
G1 X63.950 Y139.574
G1 X64.249 Y140.609
G1 X64.643 Y141.756
G1 X65.046 Y142.747
G1 X65.659 Y143.899
G1 X66.413 Y145.004
G1 X67.289 Y146.046
G1 X68.267 Y147.007
G1 X69.329 Y147.871
G1 X70.455 Y148.620
G1 X71.626 Y149.237
G1 X72.823 Y149.707
G1 X82.739 Y149.970
G1 X86.001 Y149.981
G1 X88.491 Y149.983
G1 X90.331 Y149.972
G1 X91.642 Y149.942
G1 X93.165 Y149.807
G1 X94.309 Y149.424
G1 X95.384 Y148.866
G1 X96.680 Y148.096
G1 X97.851 Y147.322
G1 X98.705 Y146.723
G1 X99.717 Y145.986
G1 X100.495 Y145.293
G1 X101.685 Y144.180
G1 X102.498 Y143.336
G1 X103.273 Y142.456
G1 X104.005 Y141.547
G1 X104.691 Y140.615
G1 X105.325 Y139.666
G1 X105.903 Y138.706
G1 X106.420 Y137.740
G1 X106.879 Y136.774
G1 X107.298 Y135.802
G1 X107.777 Y134.525
G1 X108.192 Y133.028
G1 X108.610 Y131.310
G1 X108.813 Y129.986
G1 X108.881 Y128.549
G1 X108.885 Y126.756
G1 X108.837 Y125.365
G1 X108.710 Y124.205
G1 X108.469 Y122.981
G1 X108.090 Y121.485
G1 X107.599 Y120.004
G1 X106.991 Y118.574
G1 X106.256 Y117.166
G1 X105.534 Y115.983
G1 X104.958 Y115.156
G1 X104.294 Y114.343
G1 X103.387 Y113.355
G1 X102.633 Y112.567
G1 X102.479 Y111.410
G1 X102.529 Y110.139
G1 X102.527 Y108.311
G1 X102.472 Y106.468
G1 X102.373 Y105.111
G1 X102.251 Y103.868
G1 X102.118 Y102.690
G1 X101.938 Y101.383
G1 X101.678 Y99.910
G1 X101.429 Y98.584
G1 X101.190 Y97.494
G1 X100.781 Y95.802
G1 X100.327 Y94.151
G1 X99.847 Y92.604
G1 X99.362 Y91.224
G1 X98.994 Y90.211
G1 X98.530 Y88.973
G1 X98.121 Y87.982
G1 X97.669 Y86.962
G1 X97.186 Y85.937
G1 X96.683 Y84.930
G1 X96.172 Y83.966
G1 X95.665 Y83.069
G1 X95.088 Y82.126
G1 X94.557 Y81.271
G1 X93.993 Y80.384
G1 X93.136 Y79.142
G1 X92.126 Y77.776
G1 X90.988 Y76.322
G1 X89.970 Y75.102
G1 X88.763 Y73.824
G1 X88.051 Y73.103
G1 X87.323 Y72.382
G1 X85.985 Y71.115
G1 X85.062 Y70.326
G1 X84.015 Y69.514
G1 X82.880 Y68.671
G1 X81.953 Y68.016
G1 X81.874 Y66.953
G1 X82.934 Y65.985
G1 X83.998 Y64.909
G1 X85.061 Y63.752
G1 X85.986 Y62.663
G1 X86.936 Y61.423
G1 X87.795 Y60.206
G1 X88.572 Y58.997
G1 X89.276 Y57.778
G1 X89.917 Y56.534
G1 X90.502 Y55.248
G1 X91.043 Y53.904
G1 X91.546 Y52.485
G1 X92.083 Y50.739
G1 X92.525 Y49.015
G1 X92.875 Y47.309
G1 X93.132 Y45.619
G1 X93.296 Y43.943
G1 X93.368 Y42.279
G1 X93.349 Y40.622
G1 X93.238 Y38.972
G1 X93.031 Y37.174
G1 X92.746 Y35.346
G1 X92.378 Y33.461
G1 X91.925 Y31.487
G1 X91.889 Y30.475
G1 X93.068 Y29.547
G1 X93.989 Y28.684
G1 X94.902 Y27.643
G1 X95.805 Y26.426
G1 X96.535 Y25.288
G1 X97.057 Y24.315
G1 X97.511 Y23.297
G1 X97.890 Y22.248
G1 X98.247 Y20.833
G1 X98.430 Y18.891
G1 X98.417 Y17.870
G1 X98.335 Y16.841
G1 X98.186 Y15.823
G1 X97.971 Y14.833
G1 X96.946 Y12.110
G1 X95.990 Y10.438
G1 X94.841 Y8.895
G1 X93.520 Y7.498
G1 X92.045 Y6.265
G1 X90.436 Y5.216
G1 X88.715 Y4.369
G1 X86.899 Y3.743
G1 X85.842 Y3.477
G1 X84.546 Y3.286
G1 X83.457 Y3.250
G1 X82.004 Y3.250
G1 X80.893 Y3.291
G1 X79.555 Y3.518
G1 X78.442 Y3.840
G1 X76.660 Y4.564
G1 X75.756 Y5.051
G1 X74.868 Y5.607
G1 X74.014 Y6.218
G1 X73.213 Y6.872
G1 X72.483 Y7.558
G1 X71.696 Y8.433
G1 X70.828 Y8.991
G1 X69.619 Y8.499
G1 X68.463 Y8.098
G1 X67.219 Y7.704
G1 X66.213 Y7.427
G1 X65.313 Y6.924
G1 X65.138 Y5.545
G1 X64.730 Y4.603
G1 X64.111 Y3.807
G1 X62.950 Y3.097
G1 X61.557 Y3.068
G1 X60.568 Y3.348
G1 X59.680 Y3.840
G1 X58.747 Y3.354
G1 X58.059 Y2.293
G1 X57.377 Y1.425
G1 X56.405 Y0.530
G1 X55.321 Y0.117
G1 X54.321 Y0.063
G1 X54.012 Y0.126
G0 Z5
G0 X55.286 Y4.822
G1 Z0
G1 X55.973 Y5.794
G1 X56.669 Y6.719
G1 X57.359 Y7.725
G1 X57.946 Y8.590
G1 X59.097 Y8.613
G1 X59.956 Y8.076
G1 X60.913 Y7.316
G1 X61.672 Y8.111
G1 X61.739 Y9.121
G1 X62.126 Y10.072
G1 X63.448 Y10.607
G1 X64.754 Y10.975
G1 X66.178 Y11.391
G1 X67.631 Y11.871
G1 X69.083 Y12.403
G1 X70.506 Y12.977
G1 X71.871 Y13.579
G1 X73.149 Y14.197
G1 X74.312 Y14.821
G1 X75.331 Y15.437
G1 X76.956 Y16.536
G1 X78.446 Y17.649
G1 X79.814 Y18.792
G1 X81.079 Y19.981
G1 X82.255 Y21.231
G1 X83.358 Y22.558
G1 X84.406 Y23.979
G1 X85.412 Y25.509
G1 X86.380 Y27.165
G1 X87.176 Y28.804
G1 X87.856 Y30.545
G1 X88.474 Y32.508
G1 X88.766 Y33.529
G1 X88.998 Y34.505
G1 X89.325 Y36.072
G1 X89.544 Y37.330
G1 X89.696 Y38.541
G1 X89.803 Y39.868
G1 X89.855 Y41.129
G1 X89.813 Y42.527
G1 X89.708 Y44.134
G1 X89.565 Y45.575
G1 X89.178 Y47.724
G1 X88.818 Y49.262
G1 X88.405 Y50.731
G1 X87.938 Y52.133
G1 X87.419 Y53.465
G1 X86.846 Y54.730
G1 X86.219 Y55.926
G1 X85.538 Y57.054
G1 X84.467 Y58.640
G1 X83.447 Y59.984
G1 X82.338 Y61.260
G1 X80.999 Y62.644
G1 X80.199 Y63.409
G1 X79.392 Y64.126
G1 X78.575 Y64.796
G1 X77.743 Y65.424
G1 X76.892 Y66.011
G1 X76.016 Y66.562
G1 X75.111 Y67.078
G1 X74.174 Y67.563
G1 X72.838 Y68.073
G1 X71.751 Y68.248
G1 X70.182 Y68.341
G1 X69.129 Y68.370
G1 X67.687 Y68.416
G1 X66.579 Y68.465
G1 X67.215 Y67.147
G1 X68.043 Y66.358
G1 X68.779 Y65.572
G1 X69.842 Y64.004
G1 X70.320 Y63.072
G1 X70.720 Y62.128
G1 X71.044 Y61.165
G1 X71.293 Y60.178
G1 X71.469 Y59.161
G1 X71.573 Y58.108
G1 X71.608 Y57.015
G1 X71.578 Y56.005
G1 X71.407 Y54.578
G1 X71.064 Y53.088
G1 X70.720 Y51.943
G1 X70.328 Y50.870
G1 X69.878 Y49.856
G1 X69.364 Y48.887
G1 X68.776 Y47.950
G1 X68.109 Y47.033
G1 X67.354 Y46.122
G1 X66.504 Y45.204
G1 X65.568 Y44.285
G1 X64.668 Y43.504
G1 X63.741 Y42.805
G1 X62.723 Y42.132
G1 X61.351 Y41.354
G1 X60.037 Y40.754
G1 X58.654 Y40.281
G1 X57.075 Y39.886
G1 X55.954 Y39.749
G1 X54.488 Y39.703
G1 X53.027 Y39.745
G1 X51.922 Y39.877
G1 X50.204 Y40.335
G1 X48.638 Y40.934
G1 X47.139 Y41.711
G1 X45.623 Y42.705
G1 X44.521 Y43.562
G1 X43.404 Y44.556
G1 X42.364 Y45.599
G1 X41.492 Y46.604
G1 X40.701 Y47.740
G1 X39.936 Y49.089
G1 X39.244 Y50.556
G1 X38.672 Y52.048
G1 X38.282 Y53.273
G1 X38.057 Y54.259
G1 X37.819 Y56.088
G1 X37.796 Y57.105
G1 X37.853 Y58.135
G1 X37.992 Y59.176
G1 X38.211 Y60.223
G1 X38.509 Y61.272
G1 X38.887 Y62.320
G1 X39.343 Y63.363
G1 X40.008 Y64.563
G1 X40.844 Y65.680
G1 X41.882 Y66.752
G1 X43.154 Y67.815
G1 X41.864 Y68.382
G1 X40.612 Y68.357
G1 X38.703 Y68.306
G1 X37.041 Y68.230
G1 X36.042 Y68.103
G1 X34.862 Y67.699
G1 X33.665 Y67.108
G1 X32.259 Y66.269
G1 X30.812 Y65.289
G1 X29.495 Y64.277
G1 X28.339 Y63.287
G1 X27.315 Y62.336
G1 X26.398 Y61.391
G1 X25.558 Y60.418
G1 X24.770 Y59.382
G1 X24.005 Y58.251
G1 X23.237 Y56.990
G1 X22.438 Y55.567
G1 X21.932 Y54.575
G1 X21.465 Y53.522
G1 X21.035 Y52.405
G1 X20.642 Y51.222
G1 X20.284 Y49.971
G1 X19.961 Y48.648
G1 X19.671 Y47.251
G1 X19.415 Y45.777
G1 X19.266 Y44.492
G1 X19.176 Y42.964
G1 X19.152 Y41.366
G1 X19.201 Y39.867
G1 X19.279 Y38.752
G1 X19.391 Y37.620
G1 X19.564 Y36.602
G1 X19.800 Y35.303
G1 X20.012 Y34.304
G1 X20.274 Y33.278
G1 X20.905 Y31.156
G1 X21.462 Y29.655
G1 X22.110 Y28.166
G1 X22.839 Y26.704
G1 X23.642 Y25.284
G1 X24.511 Y23.921
G1 X25.437 Y22.630
G1 X26.414 Y21.426
G1 X27.084 Y20.676
G1 X28.485 Y19.271
G1 X29.233 Y18.602
G1 X30.023 Y17.945
G1 X30.862 Y17.294
G1 X31.760 Y16.642
G1 X32.723 Y15.982
G1 X33.790 Y15.293
G1 X34.823 Y14.671
G1 X35.843 Y14.106
G1 X36.869 Y13.589
G1 X37.920 Y13.110
G1 X39.017 Y12.658
G1 X40.178 Y12.226
G1 X41.423 Y11.802
G1 X42.556 Y11.437
G1 X44.000 Y11.041
G1 X45.515 Y10.685
G1 X46.624 Y10.431
G1 X47.677 Y10.110
G1 X48.406 Y9.398
G1 X48.522 Y8.330
G1 X48.265 Y7.178
G1 X49.268 Y7.249
G1 X50.341 Y7.963
G1 X51.289 Y8.551
G1 X52.157 Y7.941
G1 X52.705 Y6.920
G1 X53.400 Y5.677
G1 X54.063 Y4.582
G1 X55.094 Y4.546
G1 X55.286 Y4.822
G0 Z5
G0 X84.586 Y6.941
G1 Z0
G1 X86.402 Y7.402
G1 X88.184 Y8.127
G1 X89.837 Y9.071
G1 X91.264 Y10.188
G1 X92.035 Y11.036
G1 X92.887 Y12.133
G1 X93.571 Y13.263
G1 X94.069 Y14.331
G1 X94.450 Y15.401
G1 X94.719 Y16.488
G1 X94.889 Y17.648
G1 X94.851 Y18.921
G1 X94.700 Y20.005
G1 X94.447 Y21.033
G1 X94.033 Y22.150
G1 X93.449 Y23.315
G1 X92.810 Y24.332
G1 X91.887 Y25.439
G1 X91.187 Y26.177
G1 X89.990 Y26.004
G1 X89.371 Y24.706
G1 X89.511 Y23.623
G1 X90.160 Y22.540
G1 X90.683 Y21.467
G1 X90.995 Y20.425
G1 X91.132 Y19.284
G1 X91.106 Y17.662
G1 X90.766 Y15.879
G1 X90.081 Y14.305
G1 X89.041 Y12.927
G1 X87.918 Y11.931
G1 X86.982 Y11.334
G1 X85.976 Y10.913
G1 X84.814 Y10.630
G1 X83.703 Y10.483
G1 X82.436 Y10.471
G1 X81.264 Y10.643
G1 X80.147 Y11.000
G1 X79.154 Y11.458
G1 X78.299 Y12.035
G1 X77.277 Y12.064
G1 X76.361 Y11.547
G1 X75.479 Y11.039
G1 X75.498 Y9.910
G1 X76.404 Y9.117
G1 X77.469 Y8.376
G1 X78.729 Y7.693
G1 X79.774 Y7.281
G1 X81.115 Y6.993
G1 X82.344 Y6.841
G1 X83.491 Y6.825
G1 X84.586 Y6.941
G0 Z5
G0 X26.822 Y6.990
G1 Z0
G1 X27.860 Y7.181
G1 X29.263 Y7.587
G1 X30.487 Y8.137
G1 X31.631 Y8.847
G1 X32.717 Y9.653
G1 X33.510 Y10.365
G1 X32.770 Y11.510
G1 X31.828 Y12.089
G1 X30.919 Y12.594
G1 X30.074 Y12.036
G1 X29.184 Y11.471
G1 X28.246 Y10.993
G1 X27.076 Y10.591
G1 X25.417 Y10.396
G1 X23.716 Y10.543
G1 X22.093 Y11.022
G1 X20.886 Y11.674
G1 X19.985 Y12.414
G1 X19.171 Y13.306
G1 X18.510 Y14.276
G1 X18.047 Y15.250
G1 X17.650 Y16.440
G1 X17.516 Y17.634
G1 X17.524 Y18.660
G1 X17.741 Y20.097
G1 X18.068 Y21.055
G1 X18.579 Y22.155
G1 X19.078 Y23.074
G1 X19.683 Y24.024
G1 X19.509 Y25.054
G1 X18.843 Y26.390
G1 X17.591 Y26.403
G1 X16.740 Y25.451
G1 X15.945 Y24.464
G1 X15.078 Y23.108
G1 X14.603 Y22.162
G1 X14.225 Y21.212
G1 X13.766 Y19.302
G1 X13.700 Y17.377
G1 X13.938 Y15.769
G1 X14.278 Y14.583
G1 X14.766 Y13.468
G1 X15.430 Y12.362
G1 X16.274 Y11.239
G1 X17.230 Y10.225
G1 X18.298 Y9.333
G1 X19.480 Y8.564
G1 X20.379 Y8.092
G1 X21.343 Y7.653
G1 X22.330 Y7.291
G1 X23.536 Y7.043
G1 X24.889 Y6.918
G1 X26.219 Y6.929
G1 X26.822 Y6.990
G0 Z5
G0 X26.696 Y14.387
G1 Z0
G1 X27.650 Y14.760
G1 X26.950 Y15.708
G1 X25.694 Y16.820
G1 X24.769 Y17.751
G1 X23.956 Y18.690
G1 X23.245 Y19.647
G1 X22.608 Y20.536
G1 X21.569 Y19.938
G1 X21.165 Y18.952
G1 X21.067 Y17.725
G1 X21.307 Y16.747
G1 X21.910 Y15.797
G1 X22.734 Y14.965
G1 X23.621 Y14.481
G1 X24.693 Y14.218
G1 X25.783 Y14.208
G1 X26.696 Y14.387
G0 Z5
G0 X84.333 Y14.378
G1 Z0
G1 X85.677 Y15.033
G1 X86.457 Y15.700
G1 X87.099 Y16.513
G1 X87.555 Y17.422
G1 X87.634 Y18.561
G1 X87.374 Y19.781
G1 X86.921 Y20.706
G1 X85.790 Y20.033
G1 X85.111 Y19.141
G1 X84.451 Y18.307
G1 X83.474 Y17.279
G1 X82.561 Y16.442
G1 X81.659 Y15.655
G1 X80.876 Y15.012
G1 X81.801 Y14.407
G1 X82.883 Y14.196
G1 X84.064 Y14.309
G1 X84.333 Y14.378
G0 Z5
G0 X56.103 Y43.454
G1 Z0
G1 X57.563 Y43.813
G1 X59.151 Y44.436
G1 X60.771 Y45.278
G1 X62.324 Y46.293
G1 X63.387 Y47.145
G1 X64.352 Y48.073
G1 X65.217 Y49.074
G1 X65.979 Y50.145
G1 X66.638 Y51.282
G1 X67.191 Y52.483
G1 X67.636 Y53.743
G1 X67.972 Y55.061
G1 X68.098 Y56.057
G1 X68.140 Y57.259
G1 X68.098 Y58.420
G1 X67.793 Y59.909
G1 X67.359 Y61.054
G1 X66.808 Y62.103
G1 X66.119 Y63.098
G1 X64.556 Y64.721
G1 X63.165 Y65.735
G1 X61.598 Y66.609
G1 X59.908 Y67.323
G1 X58.149 Y67.858
G1 X56.374 Y68.195
G1 X54.637 Y68.314
G1 X52.992 Y68.195
G1 X51.935 Y68.011
G1 X50.954 Y67.782
G1 X49.820 Y67.452
G1 X48.460 Y66.934
G1 X47.305 Y66.406
G1 X46.000 Y65.586
G1 X44.736 Y64.570
G1 X43.636 Y63.468
G1 X42.823 Y62.391
G1 X42.007 Y60.740
G1 X41.493 Y58.962
G1 X41.294 Y57.136
G1 X41.423 Y55.343
G1 X41.710 Y54.130
G1 X42.145 Y52.825
G1 X42.687 Y51.543
G1 X43.290 Y50.395
G1 X44.364 Y48.847
G1 X45.625 Y47.417
G1 X46.978 Y46.199
G1 X48.326 Y45.291
G1 X49.249 Y44.757
G1 X50.199 Y44.247
G1 X51.255 Y43.846
G1 X52.463 Y43.539
G1 X53.867 Y43.308
G1 X55.159 Y43.339
G1 X56.103 Y43.454
G0 Z5
G0 X31.080 Y70.110
G1 Z0
G1 X31.391 Y71.160
G1 X31.272 Y72.293
G1 X30.924 Y73.713
G1 X30.609 Y74.807
G1 X30.133 Y76.277
G1 X29.766 Y77.366
G1 X29.278 Y78.804
G1 X28.640 Y80.677
G1 X27.905 Y82.848
G1 X27.234 Y84.854
G1 X26.633 Y86.678
G1 X26.106 Y88.305
G1 X25.660 Y89.720
G1 X25.298 Y90.908
G1 X24.849 Y92.537
G1 X24.568 Y93.592
G1 X24.267 Y94.700
G1 X23.936 Y96.008
G1 X23.596 Y97.462
G1 X23.243 Y99.088
G1 X23.009 Y100.228
G1 X22.772 Y101.390
G1 X22.509 Y102.690
G1 X22.266 Y104.039
G1 X22.024 Y105.485
G1 X21.840 Y106.677
G1 X21.669 Y107.852
G1 X21.074 Y108.748
G1 X19.930 Y108.577
G1 X18.323 Y108.303
G1 X16.899 Y108.240
G1 X15.472 Y108.292
G1 X14.282 Y108.460
G1 X13.050 Y108.791
G1 X11.859 Y109.204
G1 X10.821 Y109.629
G1 X9.828 Y109.807
G1 X9.801 Y108.525
G1 X9.856 Y107.215
G1 X9.969 Y105.577
G1 X10.124 Y103.895
G1 X10.306 Y102.340
G1 X10.504 Y101.046
G1 X10.737 Y99.819
G1 X11.038 Y98.482
G1 X11.438 Y96.884
G1 X11.820 Y95.462
G1 X12.152 Y94.353
G1 X12.531 Y93.164
G1 X12.911 Y92.047
G1 X13.287 Y91.018
G1 X13.859 Y89.513
G1 X14.615 Y87.782
G1 X15.049 Y86.862
G1 X15.496 Y85.953
G1 X16.365 Y84.317
G1 X17.791 Y82.061
G1 X18.895 Y80.510
G1 X20.059 Y79.013
G1 X21.277 Y77.577
G1 X22.545 Y76.206
G1 X23.858 Y74.908
G1 X25.211 Y73.687
G1 X26.599 Y72.550
G1 X27.986 Y71.503
G1 X29.200 Y70.660
G1 X30.124 Y70.096
G1 X31.080 Y70.110
G0 Z5
G0 X78.753 Y70.353
G1 Z0
G1 X80.442 Y71.408
G1 X81.415 Y72.112
G1 X82.435 Y72.903
G1 X83.472 Y73.758
G1 X84.497 Y74.652
G1 X85.481 Y75.563
G1 X86.394 Y76.467
G1 X87.157 Y77.278
G1 X87.933 Y78.156
G1 X88.705 Y79.080
G1 X89.456 Y80.026
G1 X90.169 Y80.974
G1 X90.826 Y81.899
G1 X91.411 Y82.779
G1 X91.956 Y83.680
G1 X92.537 Y84.703
G1 X93.165 Y85.838
G1 X93.679 Y86.847
G1 X94.191 Y87.919
G1 X94.693 Y89.038
G1 X95.180 Y90.191
G1 X95.646 Y91.362
G1 X96.082 Y92.538
G1 X96.485 Y93.703
G1 X96.882 Y94.912
G1 X97.200 Y95.951
G1 X97.515 Y97.154
G1 X97.791 Y98.271
G1 X98.035 Y99.389
G1 X98.264 Y100.592
G1 X98.497 Y101.966
G1 X98.692 Y103.326
G1 X98.832 Y104.607
G1 X98.929 Y105.918
G1 X98.993 Y107.371
G1 X99.018 Y108.731
G1 X98.969 Y109.782
G1 X97.933 Y109.685
G1 X96.702 Y109.131
G1 X95.437 Y108.684
G1 X94.076 Y108.368
G1 X92.663 Y108.251
G1 X91.094 Y108.251
G1 X89.648 Y108.368
G1 X88.581 Y108.576
G1 X87.584 Y108.753
G1 X87.285 Y107.478
G1 X87.113 Y106.341
G1 X86.881 Y105.017
G1 X86.625 Y103.723
G1 X86.393 Y102.585
G1 X86.076 Y101.111
G1 X85.862 Y100.124
G1 X85.636 Y99.050
G1 X85.350 Y97.814
G1 X84.853 Y95.831
G1 X84.571 Y94.737
G1 X84.290 Y93.670
G1 X84.030 Y92.702
G1 X83.749 Y91.695
G1 X83.315 Y90.144
G1 X82.870 Y88.661
G1 X82.352 Y87.002
G1 X81.844 Y85.440
G1 X81.466 Y84.299
G1 X81.126 Y83.221
G1 X80.751 Y82.108
G1 X80.406 Y81.114
G1 X80.041 Y80.061
G1 X79.691 Y79.025
G1 X79.370 Y78.041
G1 X79.045 Y77.031
G1 X78.652 Y75.810
G1 X78.300 Y74.679
G1 X77.993 Y73.651
G1 X77.526 Y71.957
G1 X77.278 Y70.833
G1 X77.680 Y69.900
G1 X78.753 Y70.353
G0 Z5
G0 X50.464 Y71.830
G1 Z0
G1 X51.567 Y72.042
G1 X52.779 Y72.281
G1 X54.208 Y72.350
G1 X55.379 Y72.350
G1 X56.470 Y72.304
G1 X57.837 Y72.126
G1 X58.955 Y71.868
G1 X59.955 Y71.814
G1 X61.208 Y71.905
G1 X62.326 Y72.044
G1 X63.344 Y72.092
G1 X64.920 Y72.115
G1 X65.989 Y72.120
G1 X67.282 Y72.122
G1 X68.734 Y72.121
G1 X69.865 Y72.116
G1 X71.369 Y72.090
G1 X72.490 Y71.986
G1 X73.500 Y71.778
G1 X74.032 Y72.949
G1 X74.379 Y74.239
G1 X74.923 Y75.960
G1 X75.268 Y76.984
G1 X75.664 Y78.119
G1 X76.109 Y79.364
G1 X76.529 Y80.537
G1 X76.966 Y81.773
G1 X77.368 Y82.924
G1 X77.759 Y84.072
G1 X78.150 Y85.207
G1 X78.549 Y86.368
G1 X78.943 Y87.576
G1 X79.336 Y88.810
G1 X79.954 Y90.879
G1 X80.233 Y91.853
G1 X80.678 Y93.442
G1 X81.065 Y94.894
G1 X81.504 Y96.619
G1 X81.799 Y97.802
G1 X82.045 Y98.812
G1 X82.300 Y99.930
G1 X82.529 Y100.933
G1 X82.833 Y102.412
G1 X83.225 Y104.371
G1 X83.588 Y106.222
G1 X83.784 Y107.277
G1 X83.998 Y108.346
G1 X84.196 Y109.479
G1 X83.429 Y110.397
G1 X82.352 Y110.869
G1 X80.878 Y111.621
G1 X79.383 Y112.461
G1 X77.111 Y113.966
G1 X75.588 Y115.132
G1 X74.159 Y116.366
G1 X72.811 Y117.684
G1 X71.529 Y119.100
G1 X70.300 Y120.628
G1 X69.110 Y122.284
G1 X67.943 Y124.082
G1 X67.260 Y125.227
G1 X66.646 Y126.357
G1 X66.096 Y127.482
G1 X65.606 Y128.608
G1 X65.174 Y129.747
G1 X64.795 Y130.905
G1 X64.465 Y132.092
G1 X64.181 Y133.317
G1 X63.917 Y134.457
G1 X62.976 Y134.922
G1 X61.796 Y135.158
G1 X60.635 Y135.386
G1 X59.607 Y135.589
G1 X58.385 Y135.794
G1 X57.281 Y135.893
G1 X55.924 Y135.923
G1 X53.834 Y135.908
G1 X52.764 Y135.869
G1 X50.837 Y135.692
G1 X48.894 Y135.343
G1 X47.804 Y135.089
G1 X46.576 Y134.775
G1 X45.612 Y134.477
G1 X45.074 Y133.633
G1 X44.768 Y132.617
G1 X44.444 Y131.543
G1 X44.051 Y130.300
G1 X43.708 Y129.331
G1 X43.309 Y128.359
G1 X42.883 Y127.412
G1 X42.291 Y126.218
G1 X41.644 Y124.999
G1 X41.054 Y123.975
G1 X40.119 Y122.535
G1 X39.067 Y121.101
G1 X37.915 Y119.690
G1 X36.681 Y118.321
G1 X35.381 Y117.011
G1 X34.034 Y115.780
G1 X32.656 Y114.644
G1 X31.265 Y113.622
G1 X29.904 Y112.717
G1 X28.594 Y111.924
G1 X27.251 Y111.195
G1 X25.792 Y110.482
G1 X24.829 Y110.035
G1 X24.957 Y109.021
G1 X25.143 Y107.954
G1 X25.346 Y106.767
G1 X25.524 Y105.765
G1 X25.742 Y104.567
G1 X25.986 Y103.263
G1 X26.270 Y101.828
G1 X26.488 Y100.828
G1 X26.748 Y99.679
G1 X27.030 Y98.464
G1 X27.315 Y97.264
G1 X27.585 Y96.162
G1 X27.998 Y94.578
G1 X28.278 Y93.606
G1 X28.550 Y92.627
G1 X28.993 Y91.022
G1 X29.327 Y89.888
G1 X29.703 Y88.652
G1 X30.105 Y87.364
G1 X30.518 Y86.075
G1 X30.924 Y84.837
G1 X31.308 Y83.701
G1 X31.654 Y82.718
G1 X32.149 Y81.324
G1 X32.686 Y79.760
G1 X33.234 Y78.125
G1 X33.761 Y76.520
G1 X34.233 Y75.043
G1 X34.620 Y73.795
G1 X35.007 Y72.384
G1 X35.996 Y71.899
G1 X37.130 Y72.044
G1 X38.202 Y72.094
G1 X39.947 Y72.117
G1 X41.172 Y72.121
G1 X42.687 Y72.122
G1 X44.285 Y72.118
G1 X45.541 Y72.111
G1 X47.231 Y72.083
G1 X48.482 Y71.983
G1 X49.542 Y71.772
G1 X50.464 Y71.830
G0 Z5
G0 X17.995 Y112.028
G1 Z0
G1 X19.122 Y112.177
G1 X20.334 Y112.471
G1 X21.300 Y112.776
G1 X23.006 Y113.394
G1 X24.641 Y114.090
G1 X26.212 Y114.869
G1 X27.726 Y115.735
G1 X29.189 Y116.692
G1 X30.607 Y117.743
G1 X31.987 Y118.892
G1 X33.335 Y120.145
G1 X34.470 Y121.298
G1 X35.521 Y122.473
G1 X36.493 Y123.675
G1 X37.389 Y124.911
G1 X38.215 Y126.185
G1 X38.973 Y127.505
G1 X39.669 Y128.876
G1 X40.306 Y130.304
G1 X40.718 Y131.336
G1 X41.061 Y132.291
G1 X41.550 Y134.037
G1 X41.798 Y135.665
G1 X41.832 Y137.303
G1 X41.739 Y138.412
G1 X41.554 Y139.441
G1 X41.270 Y140.400
G1 X40.390 Y142.146
G1 X39.784 Y142.951
G1 X39.061 Y143.725
G1 X38.215 Y144.477
G1 X37.130 Y145.158
G1 X36.113 Y145.655
G1 X34.986 Y146.001
G1 X33.598 Y146.033
G1 X32.409 Y146.031
G1 X30.280 Y146.026
G1 X28.958 Y146.023
G1 X27.514 Y146.020
G1 X25.986 Y146.017
G1 X24.411 Y146.013
G1 X22.680 Y146.008
G1 X21.138 Y145.999
G1 X19.794 Y145.987
G1 X18.659 Y145.973
G1 X17.051 Y145.938
G1 X15.949 Y145.737
G1 X14.844 Y145.186
G1 X13.542 Y144.387
G1 X12.163 Y143.413
G1 X10.200 Y141.766
G1 X9.002 Y140.547
G1 X7.898 Y139.244
G1 X6.900 Y137.873
G1 X6.019 Y136.451
G1 X5.266 Y134.996
G1 X4.653 Y133.525
G1 X4.191 Y132.053
G1 X3.928 Y130.913
G1 X3.737 Y129.793
G1 X3.618 Y128.686
G1 X3.571 Y127.588
G1 X3.596 Y126.491
G1 X3.693 Y125.392
G1 X3.863 Y124.283
G1 X4.104 Y123.158
G1 X4.367 Y122.180
G1 X5.014 Y120.371
G1 X5.845 Y118.717
G1 X6.882 Y117.170
G1 X7.704 Y116.188
G1 X8.676 Y115.295
G1 X9.759 Y114.440
G1 X10.956 Y113.734
G1 X12.105 Y113.176
G1 X13.293 Y112.664
G1 X14.301 Y112.300
G1 X15.641 Y112.025
G1 X16.829 Y111.940
G1 X17.831 Y112.016
G1 X17.995 Y112.028
G0 Z5
G0 X93.335 Y112.028
G1 Z0
G1 X94.477 Y112.297
G1 X95.765 Y112.786
G1 X97.216 Y113.450
G1 X98.590 Y114.217
G1 X99.821 Y115.047
G1 X100.840 Y115.897
G1 X101.591 Y116.688
G1 X102.297 Y117.589
G1 X102.949 Y118.587
G1 X103.542 Y119.667
G1 X104.070 Y120.819
G1 X104.525 Y122.028
G1 X104.902 Y123.282
G1 X105.195 Y124.568
G1 X105.332 Y125.793
G1 X105.378 Y127.387
G1 X105.336 Y128.981
G1 X105.205 Y130.206
G1 X104.912 Y131.553
G1 X104.558 Y132.835
G1 X104.139 Y134.060
G1 X103.652 Y135.233
G1 X103.092 Y136.364
G1 X102.457 Y137.459
G1 X101.743 Y138.524
G1 X100.947 Y139.568
G1 X100.159 Y140.471
G1 X99.181 Y141.476
G1 X98.143 Y142.455
G1 X97.175 Y143.281
G1 X96.077 Y144.105
G1 X94.936 Y144.879
G1 X93.894 Y145.514
G1 X92.969 Y145.964
G1 X91.686 Y146.041
G1 X90.493 Y146.049
G1 X88.689 Y146.051
G1 X86.133 Y146.048
G1 X82.690 Y146.042
G1 X81.461 Y146.039
G1 X80.259 Y146.037
G1 X79.114 Y146.035
G1 X78.056 Y146.035
G1 X76.322 Y146.037
G1 X75.302 Y146.042
G1 X74.214 Y146.016
G1 X73.003 Y145.712
G1 X72.061 Y145.200
G1 X71.042 Y144.531
G1 X70.196 Y143.748
G1 X69.380 Y142.789
G1 X68.702 Y141.776
G1 X68.185 Y140.695
G1 X67.778 Y139.559
G1 X67.522 Y138.456
G1 X67.407 Y137.343
G1 X67.474 Y135.555
G1 X67.666 Y134.278
G1 X67.972 Y132.951
G1 X68.388 Y131.584
G1 X68.908 Y130.192
G1 X69.528 Y128.785
G1 X70.245 Y127.376
G1 X71.054 Y125.978
G1 X71.645 Y125.073
G1 X72.422 Y123.958
G1 X73.137 Y122.978
G1 X73.785 Y122.200
G1 X74.588 Y121.246
G1 X75.753 Y119.995
G1 X77.005 Y118.803
G1 X78.348 Y117.668
G1 X79.861 Y116.539
G1 X81.535 Y115.465
G1 X82.407 Y114.971
G1 X83.306 Y114.503
G1 X84.234 Y114.059
G1 X85.195 Y113.640
G1 X86.190 Y113.243
G1 X87.372 Y112.808
G1 X88.336 Y112.495
G1 X89.842 Y112.120
G1 X91.087 Y111.916
G1 X92.238 Y111.911
G1 X93.335 Y112.028
G0 Z5
G0 X38.215 Y36.873
G1 Z0
G1 X37.102 Y37.306
G1 X36.151 Y38.172
G1 X35.558 Y39.278
G1 X35.319 Y40.296
G1 X35.321 Y41.309
G1 X35.594 Y42.318
G1 X36.118 Y43.269
G1 X36.924 Y44.138
G1 X37.827 Y44.757
G1 X38.848 Y45.034
G1 X39.918 Y45.040
G1 X41.117 Y44.646
G1 X42.033 Y43.851
G1 X42.844 Y42.872
G1 X43.322 Y41.875
G1 X43.368 Y40.868
G1 X43.322 Y39.861
G1 X42.683 Y38.504
G1 X41.664 Y37.503
G1 X40.380 Y36.902
G1 X38.949 Y36.757
G1 X38.215 Y36.873
G0 Z5
G0 X68.594 Y36.873
G1 Z0
G1 X67.581 Y37.317
G1 X66.751 Y38.014
G1 X66.138 Y38.927
G1 X65.775 Y40.022
G1 X65.763 Y41.386
G1 X66.221 Y42.708
G1 X67.078 Y43.858
G1 X68.264 Y44.708
G1 X69.228 Y44.990
G1 X70.541 Y44.929
G1 X71.622 Y44.506
G1 X72.638 Y43.609
G1 X73.434 Y42.453
G1 X73.806 Y41.180
G1 X73.707 Y39.692
G1 X73.222 Y38.618
G1 X72.427 Y37.726
G1 X71.380 Y37.086
G1 X70.250 Y36.784
G1 X69.099 Y36.780
G1 X68.594 Y36.873
G0 Z5
G0 X53.040 Y44.222
G1 Z0
G1 X51.932 Y44.495
G1 X50.764 Y44.951
G1 X49.930 Y45.583
G1 X49.334 Y46.570
G1 X49.263 Y47.702
G1 X49.560 Y48.952
G1 X50.321 Y50.107
G1 X51.158 Y50.904
G1 X52.254 Y51.615
G1 X53.478 Y52.252
G1 X53.589 Y53.427
G1 X53.643 Y54.672
G1 X53.611 Y55.780
G1 X53.226 Y56.723
G1 X52.642 Y57.618
G1 X51.640 Y57.929
G1 X50.635 Y57.729
G1 X49.789 Y57.012
G1 X49.045 Y56.315
G1 X48.087 Y56.979
G1 X48.372 Y57.945
G1 X49.202 Y58.993
G1 X50.190 Y59.663
G1 X51.366 Y59.952
G1 X52.670 Y59.897
G1 X53.671 Y59.503
G1 X54.362 Y58.755
G1 X55.313 Y59.078
G1 X56.442 Y59.774
G1 X57.649 Y59.963
G1 X58.880 Y59.725
G1 X60.001 Y59.066
G1 X60.754 Y58.043
G1 X61.006 Y56.969
G1 X60.149 Y56.393
G1 X59.376 Y57.098
G1 X58.597 Y57.741
G1 X57.431 Y57.875
G1 X56.472 Y57.326
G1 X55.880 Y56.181
G1 X55.647 Y55.170
G1 X55.576 Y54.051
G1 X55.568 Y52.475
G1 X56.820 Y51.769
G1 X57.832 Y51.096
G1 X58.630 Y50.395
G1 X59.533 Y49.323
G1 X59.997 Y48.266
G1 X60.129 Y47.233
G1 X59.942 Y46.215
G1 X58.988 Y45.231
G1 X57.922 Y44.706
G1 X56.565 Y44.314
G1 X55.359 Y44.113
G1 X54.339 Y44.045
G1 X53.040 Y44.222
G0 Z5
G0 X53.750 Y111.697
G1 Z0
G1 X52.813 Y112.090
G1 X51.977 Y112.826
G1 X51.446 Y113.700
G1 X51.339 Y114.847
G1 X51.413 Y115.864
G1 X52.015 Y116.979
G1 X52.903 Y117.762
G1 X53.956 Y118.214
G1 X55.056 Y118.229
G1 X56.054 Y117.919
G1 X57.032 Y117.256
G1 X57.642 Y116.373
G1 X57.940 Y115.282
G1 X57.824 Y114.193
G1 X57.368 Y113.145
G1 X56.586 Y112.359
G1 X55.577 Y111.837
G1 X54.536 Y111.613
G1 X53.750 Y111.697
G0 Z5
M2
